STARLINK-30372          
1 57789U 23134U   26068.07043306 -.00000125  00000+0  49857-5 0  9990
2 57789  43.0069  81.8748 0002165 274.4128  85.6476 15.27591071140771
FLOCK 4G-24             
1 62637U 25009AE  26068.72509072  .00010513  00000+0  38996-3 0  9991
2 62637  97.4061 151.5140 0001802 280.2808  79.8228 15.27784978 63732
